NORAD_CAT_ID,OBJECT_NAME,OBJECT_TYPE,EPOCH,MEAN_MOTION,ECCENTRICITY,INCLINATION,RA_OF_ASC_NODE,ARG_OF_PERICENTER,MEAN_ANOMALY,BSTAR,MEAN_MOTION_DOT,MEAN_MOTION_DDOT,TLE_LINE0,TLE_LINE1,TLE_LINE2,SEMIMAJOR_AXIS,PERIOD,APOGEE,PERIGEE,DECAYED
50830.0,STARLINK-3278,PAYLOAD,2023-08-17 22:28:45,15.08843508,0.000132,53.2132,55.3898,94.0205,266.0938,0.00012873,1.762e-05,0.0,0 STARLINK-3278,1 50830U 22001AD  23229.93663214  .00001762  00000-0  12873-3 0  9993,2 50830  53.2132  55.3898 0001320  94.0205 266.0938 15.08843508 90429,6917.87,95.437,540.648,538.822,0.0
50830.0,STARLINK-3278,PAYLOAD,2023-08-18 20:44:09,15.08840455,0.0001256,53.2146,51.227,97.0008,263.1127,0.00012506,1.703e-05,0.0,0 STARLINK-3278,1 50830U 22001AD  23230.86399511  .00001703  00000-0  12506-3 0  9991,2 50830  53.2146  51.2270 0001256  97.0008 263.1127 15.08840455 90566,6917.879,95.438,540.613,538.875,0.0
50830.0,STARLINK-3278,PAYLOAD,2023-08-19 22:10:19,15.0883924,0.0001267,53.2151,46.4692,93.9922,266.1215,8.1105e-05,1.003e-05,0.0,0 STARLINK-3278,1 50830U 22001AD  23231.92383766  .00001003  00000-0  81105-4 0  9999,2 50830  53.2151  46.4692 0001267  93.9922 266.1215 15.08839240 90727,6917.883,95.438,540.624,538.871,0.0
50830.0,STARLINK-3278,PAYLOAD,2023-08-20 23:36:29,15.08849221,0.0001009,53.2163,41.7103,88.8063,271.3045,0.0002853,4.257e-05,0.0,0 STARLINK-3278,1 50830U 22001AD  23232.98367584  .00004257  00000-0  28530-3 0  9992,2 50830  53.2163  41.7103 0001009  88.8063 271.3045 15.08849221 90884,6917.852,95.437,540.415,539.019,0.0
50830.0,STARLINK-3278,PAYLOAD,2023-08-21 10:44:12,15.08834347,7.89e-05,53.2167,39.6292,97.7738,262.3344,2.5009e-05,1.1e-06,0.0,0 STARLINK-3278,1 50830U 22001AD  23233.44736179  .00000110  00000-0  25009-4 0  9997,2 50830  53.2167  39.6292 0000789  97.7738 262.3344 15.08834347 90958,6917.898,95.438,540.308,539.217,0.0
50830.0,STARLINK-3278,PAYLOAD,2023-08-21 18:41:07,15.08846878,9.92e-05,53.2161,38.1419,90.0315,270.079,0.00028058,4.181e-05,0.0,0 STARLINK-3278,1 50830U 22001AD  23233.77855829  .00004181  00000-0  28058-3 0  9995,2 50830  53.2161  38.1419 0000992  90.0315 270.0790 15.08846878 91000,6917.859,95.437,540.411,539.038,0.0
50830.0,STARLINK-3278,PAYLOAD,2023-08-22 10:34:59,15.08840304,0.0001036,53.2159,35.1683,91.2254,268.8857,0.00015865,2.238e-05,0.0,0 STARLINK-3278,1 50830U 22001AD  23234.44096159  .00002238  00000-0  15865-3 0  9996,2 50830  53.2159  35.1683 0001036  91.2254 268.8857 15.08840304 91100,6917.879,95.438,540.461,539.028,0.0
50830.0,STARLINK-3278,PAYLOAD,2023-08-24 21:24:15,15.08846081,0.0001315,53.2155,24.1656,87.5494,272.5648,0.00021322,3.108e-05,0.0,0 STARLINK-3278,1 50830U 22001AD  23236.89184172  .00003108  00000-0  21322-3 0  9992,2 50830  53.2155  24.1656 0001315  87.5494 272.5648 15.08846081 90206,6917.862,95.437,540.637,538.817,0.0
50830.0,STARLINK-3278,PAYLOAD,2023-08-25 10:07:20,15.08836086,0.0001185,53.2175,21.7861,81.6167,278.496,8.9004e-06,-1.46e-06,0.0,0 STARLINK-3278,1 50830U 22001AD  23237.42176537 -.00000146  00000-0  89004-5 0  9991,2 50830  53.2175  21.7861 0001185  81.6167 278.4960 15.08836086 91551,6917.892,95.438,540.577,538.938,0.0
50830.0,STARLINK-3278,PAYLOAD,2023-08-25 13:18:06,15.08837998,0.0001199,53.2177,21.1934,75.212,284.9005,4.2496e-05,3.89e-06,0.0,0 STARLINK-3278,1 50830U 22001AD  23237.55424534  .00000389  00000-0  42496-4 0  9999,2 50830  53.2177  21.1934 0001199  75.2120 284.9005 15.08837998 90308,6917.887,95.438,540.581,538.922,0.0
50830.0,STARLINK-3278,PAYLOAD,2023-08-25 21:15:02,15.0884578,0.0001279,53.2187,19.7027,87.0034,273.1104,0.00022793,3.342e-05,0.0,0 STARLINK-3278,1 50830U 22001AD  23237.88544292  .00003342  00000-0  22793-3 0  9998,2 50830  53.2187  19.7027 0001279  87.0034 273.1104 15.08845780 90352,6917.863,95.437,540.613,538.843,0.0
50830.0,STARLINK-3278,PAYLOAD,2023-08-26 16:19:39,15.0884484,0.0001192,53.2181,16.1343,99.6043,260.5084,3.4045e-05,2.54e-06,0.0,0 STARLINK-3278,1 50830U 22001AD  23238.68032263  .00000254  00000-0  34045-4 0  9990,2 50830  53.2181  16.1343 0001192  99.6043 260.5084 15.08844840 91748,6917.866,95.437,540.555,538.906,0.0
50830.0,STARLINK-3278,PAYLOAD,2023-08-26 21:05:48,15.08851503,0.0001849,53.2179,15.2363,162.6393,197.4663,0.00025954,3.846e-05,0.0,0 STARLINK-3278,1 50830U 22001AD  23238.87903542  .00003846  00000-0  25954-3 0  9996,2 50830  53.2179  15.2363 0001849 162.6393 197.4663 15.08851503 90503,6917.845,95.437,540.989,538.431,0.0
50830.0,STARLINK-3278,PAYLOAD,2023-08-27 14:35:03,15.08841776,0.0001274,53.2182,11.9707,101.9632,258.1503,7.3876e-05,8.88e-06,0.0,0 STARLINK-3278,1 50830U 22001AD  23239.60768395  .00000888  00000-0  73876-4 0  9993,2 50830  53.2182  11.9707 0001274 101.9632 258.1503 15.08841776 91887,6917.875,95.437,540.621,538.859,0.0
50830.0,STARLINK-3278,PAYLOAD,2023-08-27 19:21:12,15.08856694,0.000118,53.2183,11.0814,86.313,273.7997,0.0003714,5.631e-05,0.0,0 STARLINK-3278,1 50830U 22001AD  23239.80639921  .00005631  00000-0  37140-3 0  9991,2 50830  53.2183  11.0814 0001180  86.3130 273.7997 15.08856694 90641,6917.829,95.436,540.511,538.878,0.0
50830.0,STARLINK-3278,PAYLOAD,2023-08-28 17:36:36,15.08859296,0.0001253,53.217,6.9197,83.5222,276.5912,0.00035216,5.324e-05,0.0,0 STARLINK-3278,1 50830U 22001AD  23240.73375218  .00005324  00000-0  35216-3 0  9992,2 50830  53.2170   6.9197 0001253  83.5222 276.5912 15.08859296 92052,6917.821,95.436,540.553,538.82,0.0
50830.0,STARLINK-3278,PAYLOAD,2023-08-29 01:33:32,15.08841551,0.0001254,53.2176,5.432,101.827,258.2863,8.3149e-06,-1.56e-06,0.0,0 STARLINK-3278,1 50830U 22001AD  23241.06495692 -.00000156  00000-0  83149-5 0  9997,2 50830  53.2176   5.4320 0001254 101.8270 258.2863 15.08841551 92101,6917.876,95.437,540.608,538.873,0.0
50830.0,STARLINK-3278,PAYLOAD,2023-08-29 15:52:00,15.08835282,0.0001388,53.2175,2.7549,96.8425,263.2725,-0.00015037,-2.68e-05,0.0,0 STARLINK-3278,1 50830U 22001AD  23241.66112263 -.00002680  00000-0 -15037-3 0  9997,2 50830  53.2175   2.7549 0001388  96.8425 263.2725 15.08835282 92192,6917.895,95.438,540.72,538.8,0.0
50830.0,STARLINK-3278,PAYLOAD,2023-08-29 20:38:10,15.08839956,0.0001041,53.2163,1.8633,101.0922,259.0187,-1.1963e-05,-4.78e-06,0.0,0 STARLINK-3278,1 50830U 22001AD  23241.85984038 -.00000478  00000-0 -11963-4 0  9993,2 50830  53.2163   1.8633 0001041 101.0922 259.0187 15.08839956 92221,6917.881,95.438,540.466,539.025,0.0
50830.0,STARLINK-3278,PAYLOAD,2023-08-30 14:07:25,15.08836384,9.78e-05,53.2167,358.5934,89.991,270.1194,9.9897e-05,1.302e-05,0.0,0 STARLINK-3278,1 50830U 22001AD  23242.58848688  .00001302  00000-0  99897-4 0  9991,2 50830  53.2167 358.5934 0000978  89.9910 270.1194 15.08836384 92336,6917.891,95.438,540.433,539.08,0.0
50830.0,STARLINK-3278,PAYLOAD,2023-08-31 18:44:22,15.08836606,0.0001108,53.2168,353.2408,85.1219,274.99,0.00015633,2.201e-05,0.0,0 STARLINK-3278,1 50830U 22001AD  23243.78081185  .00002201  00000-0  15633-3 0  9999,2 50830  53.2168 353.2408 0001108  85.1219 274.9900 15.08836606 91244,6917.891,95.438,540.522,538.989,0.0
50830.0,STARLINK-3278,PAYLOAD,2023-09-01 01:05:54,15.08839256,8.29e-05,53.2175,352.0524,77.0294,283.0791,0.00014619,2.04e-05,0.0,0 STARLINK-3278,1 50830U 22001AD  23244.04577037  .00002040  00000-0  14619-3 0  9999,2 50830  53.2175 352.0524 0000829  77.0294 283.0791 15.08839256 92558,6917.883,95.438,540.321,539.174,0.0
50830.0,STARLINK-3278,PAYLOAD,2023-09-01 18:35:08,15.08850942,0.0001137,53.2189,348.7827,66.012,294.0991,0.00018153,2.603e-05,0.0,0 STARLINK-3278,1 50830U 22001AD  23244.77440519  .00002603  00000-0  18153-3 0  9995,2 50830  53.2189 348.7827 0001137  66.0120 294.0991 15.08850942 92661,6917.847,95.437,540.499,538.925,0.0
50830.0,STARLINK-3278,PAYLOAD,2023-09-02 12:04:23,15.08838832,0.0001459,53.2192,345.5099,82.5169,277.5988,-4.274e-08,-2.89e-06,0.0,0 STARLINK-3278,1 50830U 22001AD  23245.50305167 -.00000289  00000-0 -42740-7 0  9999,2 50830  53.2192 345.5099 0001459  82.5169 277.5988 15.08838832 91502,6917.884,95.438,540.758,538.74,0.0
50830.0,STARLINK-3278,PAYLOAD,2023-09-02 16:50:32,15.0884216,0.0001234,53.2185,344.6131,108.0194,252.0933,0.00015825,2.232e-05,0.0,0 STARLINK-3278,1 50830U 22001AD  23245.70176809  .00002232  00000-0  15825-3 0  9998,2 50830  53.2185 344.6131 0001234 108.0194 252.0933 15.08842160 92805,6917.874,95.437,540.592,538.885,0.0
50830.0,STARLINK-3278,PAYLOAD,2023-09-02 18:25:55,15.0885838,0.0001345,53.2177,344.3213,60.1258,299.9868,0.00039036,5.933e-05,0.0,0 STARLINK-3278,1 50830U 22001AD  23245.76800344  .00005933  00000-0  39036-3 0  9993,2 50830  53.2177 344.3213 0001345  60.1258 299.9868 15.08858380 91544,6917.824,95.436,540.62,538.759,0.0
50830.0,STARLINK-3278,PAYLOAD,2023-09-03 13:30:33,15.08848987,9.77e-05,53.2191,340.7524,72.4494,287.6604,0.00014039,1.948e-05,0.0,0 STARLINK-3278,1 50830U 22001AD  23246.56288235  .00001948  00000-0  14039-3 0  9999,2 50830  53.2191 340.7524 0000977  72.4494 287.6604 15.08848987 91660,6917.853,95.437,540.394,539.042,0.0
50830.0,STARLINK-3278,PAYLOAD,2023-09-03 15:05:55,15.0886109,0.0001198,53.2175,340.4533,82.2244,277.8884,0.00016201,2.293e-05,0.0,0 STARLINK-3278,1 50830U 22001AD  23246.62911499  .00002293  00000-0  16201-3 0  9998,2 50830  53.2175 340.4533 0001198  82.2244 277.8884 15.08861090 92940,6917.816,95.436,540.51,538.852,0.0
50830.0,STARLINK-3278,PAYLOAD,2023-09-03 23:02:52,15.08835241,0.0001223,53.2178,338.9663,90.0111,270.1022,-5.5628e-05,-1.173e-05,0.0,0 STARLINK-3278,1 50830U 22001AD  23246.96032682 -.00001173  00000-0 -55628-4 0  9998,2 50830  53.2178 338.9663 0001223  90.0111 270.1022 15.08835241 92992,6917.895,95.438,540.606,538.914,0.0
50830.0,STARLINK-3278,PAYLOAD,2023-09-04 05:24:25,15.08830933,0.000165,53.2188,337.7793,87.9269,272.1912,-0.00013502,-2.436e-05,0.0,0 STARLINK-3278,1 50830U 22001AD  23247.22529119 -.00002436  00000-0 -13502-3 0  9991,2 50830  53.2188 337.7793 0001650  87.9269 272.1912 15.08830933 91764,6917.908,95.438,540.915,538.632,0.0
